SHENZHOU-22             
1 66645U 25272A   25342.61491639  .00028320  00000+0  35728-3 0  9992
2 66645  41.4682  41.7451 0009131 357.4459   2.6332 15.58905517263000
CZ-2F R/B               
1 66646U 25272B   25341.54184061  .11903621  80762-5  15075-3 0  9992
2 66646  41.4535  41.9834 0022140 229.6731 130.2205 16.47453798  2009
SOYUZ-MS 28             
1 66664U 25275A   25342.54239145  .00012445  00000+0  23028-3 0  9991
2 66664  51.6307 163.2617 0003394 220.7658 139.3077 15.49420853  1795
1998-067XS              
1 66906U 98067XS  25342.79745316  .00031833  00000+0  55816-3 0  9990
2 66906  51.6298 161.9654 0004022 184.9972 175.0977 15.50265121  1005
1998-067XT              
1 66907U 98067XT  25342.79645479  .00074227  00000+0  12614-2 0  9992
2 66907  51.6302 161.9586 0004972 204.3216 155.7539 15.50762002  1007
1998-067XU              
1 66908U 98067XU  25342.79627106  .00071266  00000+0  12102-2 0  9992
2 66908  51.6297 161.9574 0005158 203.0343 157.0415 15.50799834  1003
SILVERSAT               
1 66909U 98067XV  25342.73171404  .00079284  00000+0  13404-2 0  9996
2 66909  51.6297 162.2763 0005012 204.4469 155.6283 15.50878297   996
1998-067XW              
1 66910U 98067XW  25342.79508362  .00072421  00000+0  12166-2 0  9991
2 66910  51.6296 161.9498 0005915 189.2693 170.8188 15.51091956  1005
1998-067XX              
1 66911U 98067XX  25342.79484949  .00085043  00000+0  14185-2 0  9993
2 66911  51.6294 161.9483 0005755 189.9158 170.1718 15.51222448   994
1998-067XY              
1 66912U 98067XY  25342.79680775  .00060617  00000+0  10397-2 0  9990
2 66912  51.6301 161.9610 0005041 202.8515 157.2251 15.50590013   999
